BEESAT-4                
1 41619U 16040W   21069.13590398  .00002271  00000-0  93653-4 0  9990
2 41619  97.2835 127.9712 0009678 330.4075  29.6614 15.25030392249876
CAS-2T & KS-1Q          
1 41847U 16066G   21068.70884292  .00000148  00000-0  32056-4 0  9993
2 41847  98.6155 127.3652 0365918 157.9294 203.8117 14.38156124227542
NAYIF-1 (EO-88)         
1 42017U 17008BX  21069.47413591  .00002389  00000-0  91095-4 0  9992
2 42017  97.3271 138.8301 0007792  99.3345 260.8776 15.27636553226141
ZHUHAI-1 02 (CAS-4B)    
1 42759U 17034B   21069.28953113  .00000617  00000-0  50581-4 0  9999
2 42759  43.0185   6.2080 0010654 266.2030 227.0905 15.10104861206157
ZHUHAI-1 01 (CAS-4A)    
1 42761U 17034D   21069.55705703  .00000592  00000-0  48930-4 0  9999
2 42761  43.0187   3.8619 0011213 268.4372 260.4868 15.10186297206194
MAX VALIER SAT          
1 42778U 17036P   21068.66367871  .00001414  00000-0  62404-4 0  9996
2 42778  97.2694 120.4915 0012619 160.8760 199.2954 15.23283844206092
RADFXSAT (FOX-1B)       
1 43017U 17073E   21069.52067074  .00000717  00000-0  61437-4 0  9992
2 43017  97.7142 337.4059 0254052 263.1014  94.1239 14.79373921178496
FOX-1D (AO-92)          
1 43137U 18004AC  21069.12750277  .00001706  00000-0  71438-4 0  9991
2 43137  97.4156 144.1584 0008538 190.9151 169.1902 15.24894046175519
DIWATA-2B               
1 43678U 18084H   21069.44757276  .00000541  00000-0  59433-4 0  9997
2 43678  97.9077 194.3116 0010563  26.7821 333.3936 14.91720064128673
ES'HAIL 2               
1 43700U 18090A   21069.08591073  .00000121  00000-0  00000+0 0  9996
2 43700   0.0163 237.0408 0002354 154.7942 192.8538  1.00272885  8610
FOX-1CLIFF (AO-95)      
1 43770U 18099N   21069.47703761  .00000817  00000-0  79328-4 0  9990
2 43770  97.6750 141.8112 0015200  34.4525 325.7678 14.95221525123668
ITASAT 1                
1 43786U 18099AE  21069.48302178  .00000744  00000-0  72195-4 0  9999
2 43786  97.6769 142.4261 0015723  27.8069 332.3989 14.95530380123690
JY1SAT (JO-97)          
1 43803U 18099AX  21069.46250611  .00000517  00000-0  51435-4 0  9993
2 43803  97.6727 142.1712 0015519  27.4374 332.7663 14.95751868123699
UWE-4                   
1 43880U 18111E   21068.71028212  .00000316  00000-0  32638-4 0  9991
2 43880  97.6936 338.1197 0013929  78.7126 281.5660 14.96756952120164
PSAT2 (NO-104)          
1 44354U 19036R   21069.37514175  .00020165  00000-0  27678-3 0  9997
2 44354  28.5316  66.2868 0337543 283.9157  72.4116 15.10314608 93959
BRICSAT2 (NO-103)       
1 44355U 19036S   21068.58288127  .00048422  00000-0  58151-3 0  9991
2 44355  28.5291  41.0070 0289819 325.0391  33.1484 15.22681854 94145
JAISAT-1                
1 44419U 19038F   21068.81446248  .00001540  00000-0  89517-4 0  9991
2 44419  97.5764  33.9790 0019721 298.3800  61.5443 15.13460351 92725
DUCHIFAT-3              
1 44854U 19089C   21069.10577935  .00000715  00000-0  63736-4 0  9999
2 44854  36.9691 328.1016 0007254  45.1644 314.9694 14.99364783 68187
RS-44 & BREEZE-KM R/B   
1 44909U 19096E   21068.78792921 -.00000001  00000-0 -42119-4 0  9997
2 44909  82.5253 179.0257 0216663 326.3769  32.3738 12.79708689 56097
ORBITAL FACTORY 2 (OF-2)
1 45113U 19071C   21068.56206961  .00002616  00000-0  86949-4 0  9999
2 45113  51.6423 161.5753 0011874 294.0255  65.9484 15.34975135 61829
HUSKYSAT-1 (HO-107)     
1 45119U 19071J   21069.09785850  .00002874  00000-0  94142-4 0  9993
2 45119  51.6422 158.4007 0011247 292.5364  67.4428 15.35070182 61902
BY70-2                  
1 45857U 20042B   21069.39018532  .00001354  00000-0  20037-3 0  9994
2 45857  97.9900 146.1656 0012349 165.9058 194.2493 14.76750319 36922
SALSAT                  
1 46495U 20068K   21068.89229265  .00000895  00000-0  70231-4 0  9993
2 46495  97.6860   7.0312 0018088  53.2478 307.0405 15.03376273 24375
BY70-3                  
1 46839U 20079N   21069.52137815  .00003333  00000-0  10700-3 0  9991
2 46839  97.2494 145.3495 0007003 186.6812 298.3815 15.32981151 19046
RADFXSAT-2 (AO-109)     
1 47311U 21002C   21068.79870731  .00001330  00000-0  70733-4 0  9991
2 47311  60.6844 304.1517 0019968 342.8141  17.2266 15.21322551  7708
UVSQ-SAT                
1 47438U 21006AB  21069.37822852  .00001049  00000-0  63134-4 0  9995
2 47438  97.5001 132.3269 0014421  81.9956 278.2910 15.12905807  7077
